NORAD_CAT_ID,OBJECT_NAME,OBJECT_TYPE,EPOCH,MEAN_MOTION,ECCENTRICITY,INCLINATION,RA_OF_ASC_NODE,ARG_OF_PERICENTER,MEAN_ANOMALY,BSTAR,MEAN_MOTION_DOT,MEAN_MOTION_DDOT,TLE_LINE0,TLE_LINE1,TLE_LINE2,SEMIMAJOR_AXIS,PERIOD,APOGEE,PERIGEE,DECAYED
53007.0,STARLINK-4215,PAYLOAD,2024-03-15 01:15:31,15.08837875,0.0001454,53.217,107.142,87.9771,272.1388,5.6823e-05,6.16e-06,0.0,0 STARLINK-4215,1 53007U 22076X   24075.05244446  .00000616  00000-0  56823-4 0  9990,2 53007  53.2170 107.1420 0001454  87.9771 272.1388 15.08837875 93929,6917.887,95.438,540.758,538.746,0.0
53007.0,STARLINK-4215,PAYLOAD,2024-03-15 07:37:04,15.0883112,0.0001793,53.2165,105.9519,111.4789,248.6394,-3.898e-06,-3.5e-06,0.0,0 STARLINK-4215,1 53007U 22076X   24075.31741011 -.00000350  00000-0 -38980-5 0  9991,2 53007  53.2165 105.9519 0001793 111.4789 248.6394 15.08831120 93962,6917.908,95.438,541.013,538.532,0.0
53007.0,STARLINK-4215,PAYLOAD,2024-03-16 09:03:14,15.08833164,0.0001324,53.2166,101.195,94.9153,265.199,3.1306e-05,2.1e-06,0.0,0 STARLINK-4215,1 53007U 22076X   24076.37725226  .00000210  00000-0  31306-4 0  9995,2 53007  53.2166 101.1950 0001324  94.9153 265.1990 15.08833164 94125,6917.901,95.438,540.682,538.85,0.0
53007.0,STARLINK-4215,PAYLOAD,2024-03-17 08:54:00,15.08856077,0.0001858,53.2174,96.7367,82.7352,277.3851,-8.6829e-05,-1.67e-05,0.0,0 STARLINK-4215,1 53007U 22076X   24077.37084246 -.00001670  00000-0 -86829-4 0  9999,2 53007  53.2174  96.7367 0001858  82.7352 277.3851 15.08856077 94278,6917.831,95.437,540.982,538.411,0.0
53007.0,STARLINK-4215,PAYLOAD,2024-03-18 00:47:52,15.08843307,0.0001418,53.2169,93.7618,89.5738,270.5417,0.00012684,1.731e-05,0.0,0 STARLINK-4215,1 53007U 22076X   24078.03324526  .00001731  00000-0  12684-3 0  9994,2 53007  53.2169  93.7618 0001418  89.5738 270.5417 15.08843307 94379,6917.87,95.437,540.716,538.754,0.0
53007.0,STARLINK-4215,PAYLOAD,2024-03-18 08:44:47,15.08835129,0.0001754,53.218,92.2774,73.3895,286.7289,0.00045479,6.956e-05,0.0,0 STARLINK-4215,1 53007U 22076X   24078.36444248  .00006956  00000-0  45479-3 0  9996,2 53007  53.2180  92.2774 0001754  73.3895 286.7289 15.08835129 93959,6917.895,95.438,540.974,538.547,0.0
53007.0,STARLINK-4215,PAYLOAD,2024-03-19 10:10:58,15.08842171,0.0001623,53.2189,87.5127,120.1997,239.9156,-6.9711e-05,-1.397e-05,0.0,0 STARLINK-4215,1 53007U 22076X   24079.42428508 -.00001397  00000-0 -69711-4 0  9997,2 53007  53.2189  87.5127 0001623 120.1997 239.9156 15.08842171 94584,6917.874,95.437,540.862,538.616,0.0
53007.0,STARLINK-4215,PAYLOAD,2024-03-20 06:50:58,15.0884898,0.0001519,53.2185,83.6476,101.6322,258.4841,-0.00013004,-2.358e-05,0.0,0 STARLINK-4215,1 53007U 22076X   24080.28540426 -.00002358  00000-0 -13004-3 0  9998,2 53007  53.2185  83.6476 0001519 101.6322 258.4841 15.08848980 94248,6917.853,95.437,540.769,538.667,0.0
53007.0,STARLINK-4215,PAYLOAD,2024-03-21 05:06:23,15.08832756,0.0001421,53.2174,79.4851,99.4076,260.7077,0.00011927,1.61e-05,0.0,0 STARLINK-4215,1 53007U 22076X   24081.21276903  .00001610  00000-0  11927-3 0  9998,2 53007  53.2174  79.4851 0001421  99.4076 260.7077 15.08832756 94856,6917.903,95.438,540.751,538.784,0.0
53007.0,STARLINK-4215,PAYLOAD,2024-03-21 06:41:46,15.08833808,0.0001359,53.2171,79.188,86.2713,273.8434,0.00012375,1.682e-05,0.0,0 STARLINK-4215,1 53007U 22076X   24081.27900932  .00001682  00000-0  12375-3 0  9997,2 53007  53.2171  79.1880 0001359  86.2713 273.8434 15.08833808 94394,6917.899,95.438,540.704,538.824,0.0
53007.0,STARLINK-4215,PAYLOAD,2024-03-22 04:57:10,15.08841137,0.000133,53.2171,75.0251,86.212,273.9024,0.0001204,1.629e-05,0.0,0 STARLINK-4215,1 53007U 22076X   24082.20636853  .00001629  00000-0  12040-3 0  9999,2 53007  53.2171  75.0251 0001330  86.2120 273.9024 15.08841137 94538,6917.877,95.437,540.662,538.822,0.0
53007.0,STARLINK-4215,PAYLOAD,2024-03-23 04:47:58,15.08828382,0.0001134,53.2172,70.5638,73.5029,286.6087,-5.8974e-06,-3.82e-06,0.0,0 STARLINK-4215,1 53007U 22076X   24083.19998131 -.00000382  00000-0 -58974-5 0  9993,2 53007  53.2172  70.5638 0001134  73.5029 286.6087 15.08828382 95153,6917.916,95.438,540.565,538.996,0.0
53007.0,STARLINK-4215,PAYLOAD,2024-03-23 09:34:07,15.08829094,0.0001224,53.2164,69.6738,53.216,306.8945,-7.8266e-05,-1.533e-05,0.0,0 STARLINK-4215,1 53007U 22076X   24083.39869683 -.00001533  00000-0 -78266-4 0  9998,2 53007  53.2164  69.6738 0001224  53.2160 306.8945 15.08829094 94715,6917.914,95.438,540.625,538.932,0.0
53007.0,STARLINK-4215,PAYLOAD,2024-03-24 04:38:44,15.08842331,0.000156,53.217,66.1036,103.882,256.2346,0.00010575,1.396e-05,0.0,0 STARLINK-4215,1 53007U 22076X   24084.19357187  .00001396  00000-0  10575-3 0  9991,2 53007  53.2170  66.1036 0001560 103.8820 256.2346 15.08842331 95301,6917.873,95.437,540.817,538.659,0.0
53007.0,STARLINK-4215,PAYLOAD,2024-03-24 07:49:30,15.08855038,0.0001319,53.217,65.5084,107.5917,252.522,0.00028586,4.266e-05,0.0,0 STARLINK-4215,1 53007U 22076X   24084.32604486  .00004266  00000-0  28586-3 0  9993,2 53007  53.2170  65.5084 0001319 107.5917 252.5220 15.08855038 95327,6917.834,95.437,540.612,538.787,0.0
53007.0,STARLINK-4215,PAYLOAD,2024-03-24 22:07:59,15.08841129,0.0001448,53.2178,62.839,64.3256,295.7886,0.00019457,2.81e-05,0.0,0 STARLINK-4215,1 53007U 22076X   24084.92221623  .00002810  00000-0  19457-3 0  9997,2 53007  53.2178  62.8390 0001448  64.3256 295.7886 15.08841129 95417,6917.877,95.437,540.744,538.74,0.0
53007.0,STARLINK-4215,PAYLOAD,2024-03-25 06:04:56,15.08825069,0.0001473,53.2176,61.3445,97.5562,262.5597,0.00012193,1.652e-05,0.0,0 STARLINK-4215,1 53007U 22076X   24085.25342663  .00001652  00000-0  12193-3 0  9995,2 53007  53.2176  61.3445 0001473  97.5562 262.5597 15.08825069 95467,6917.926,95.438,540.81,538.772,0.0
53007.0,STARLINK-4215,PAYLOAD,2024-03-25 15:37:14,15.0883618,0.000149,53.2181,59.5606,105.8361,254.2795,0.00026375,3.912e-05,0.0,0 STARLINK-4215,1 53007U 22076X   24085.65086452  .00003912  00000-0  26375-3 0  9998,2 53007  53.2181  59.5606 0001490 105.8361 254.2795 15.08836180 95521,6917.892,95.438,540.788,538.726,0.0
53007.0,STARLINK-4215,PAYLOAD,2024-03-26 07:31:06,15.08841632,0.0002011,53.2187,56.5871,89.0014,271.1209,1.1428e-05,-1.06e-06,0.0,0 STARLINK-4215,1 53007U 22076X   24086.31326432 -.00000106  00000-0  11428-4 0  9994,2 53007  53.2187  56.5871 0002011  89.0014 271.1209 15.08841632 95151,6917.875,95.437,541.132,538.349,0.0
53007.0,STARLINK-4215,PAYLOAD,2024-03-26 15:28:01,15.0884946,0.0002012,53.2197,55.1005,89.8893,270.233,0.00016989,2.417e-05,0.0,0 STARLINK-4215,1 53007U 22076X   24086.64446035  .00002417  00000-0  16989-3 0  9994,2 53007  53.2197  55.1005 0002012  89.8893 270.2330 15.08849460 95208,6917.851,95.437,541.108,538.325,0.0
53007.0,STARLINK-4215,PAYLOAD,2024-03-27 04:11:07,15.08837737,0.0002007,53.2192,52.7223,99.9016,260.2203,0.00024119,3.552e-05,0.0,0 STARLINK-4215,1 53007U 22076X   24087.17438716  .00003552  00000-0  24119-3 0  9995,2 53007  53.2192  52.7223 0002007  99.9016 260.2203 15.08837737 95753,6917.887,95.438,541.141,538.364,0.0
53007.0,STARLINK-4215,PAYLOAD,2024-03-28 07:12:39,15.088454,0.0001581,53.2193,47.6654,98.3362,261.781,7.271e-05,8.7e-06,0.0,0 STARLINK-4215,1 53007U 22076X   24088.30046070  .00000870  00000-0  72710-4 0  9990,2 53007  53.2193  47.6654 0001581  98.3362 261.7810 15.08845400 95923,6917.864,95.437,540.823,538.635,0.0
53007.0,STARLINK-4215,PAYLOAD,2024-03-29 02:17:17,15.08837342,0.0001656,53.2187,44.0976,97.4987,262.6194,3.3341e-05,2.43e-06,0.0,0 STARLINK-4215,1 53007U 22076X   24089.09534463  .00000243  00000-0  33341-4 0  9996,2 53007  53.2187  44.0976 0001656  97.4987 262.6194 15.08837342 96045,6917.889,95.438,540.899,538.608,0.0
53007.0,STARLINK-4215,PAYLOAD,2024-03-29 13:24:58,15.08849287,0.0001584,53.2193,42.0167,95.7208,264.3965,6.9195e-05,8.14e-06,0.0,0 STARLINK-4215,1 53007U 22076X   24089.55901489  .00000814  00000-0  69195-4 0  9993,2 53007  53.2193  42.0167 0001584  95.7208 264.3965 15.08849287 96113,6917.852,95.437,540.813,538.621,0.0
53007.0,STARLINK-4215,PAYLOAD,2024-03-29 21:21:54,15.08845932,0.0002447,53.2183,40.5312,87.5564,272.5709,0.00011388,1.525e-05,0.0,0 STARLINK-4215,1 53007U 22076X   24089.89021861  .00001525  00000-0  11388-3 0  9997,2 53007  53.2183  40.5312 0002447  87.5564 272.5709 15.08845932 95692,6917.862,95.437,541.42,538.034,0.0
53007.0,STARLINK-4215,PAYLOAD,2024-03-30 03:43:27,15.08837886,0.0001581,53.2198,39.3453,99.8579,260.2591,3.5675e-05,2.8e-06,0.0,0 STARLINK-4215,1 53007U 22076X   24090.15518471  .00000280  00000-0  35675-4 0  9999,2 53007  53.2198  39.3453 0001581  99.8579 260.2591 15.08837886 96200,6917.887,95.438,540.846,538.658,0.0
53007.0,STARLINK-4215,PAYLOAD,2024-03-30 13:15:45,15.08849009,0.0001497,53.2201,37.5583,96.5693,263.547,9.326e-05,1.197e-05,0.0,0 STARLINK-4215,1 53007U 22076X   24090.55261391  .00001197  00000-0  93260-4 0  9991,2 53007  53.2201  37.5583 0001497  96.5693 263.5470 15.08849009 96264,6917.853,95.437,540.753,538.682,0.0
53007.0,STARLINK-4215,PAYLOAD,2024-03-31 05:09:38,15.08836078,0.0001561,53.2193,34.5887,100.5628,259.554,9.9957e-06,-1.29e-06,0.0,0 STARLINK-4215,1 53007U 22076X   24091.21502955 -.00000129  00000-0  99957-5 0  9994,2 53007  53.2193  34.5887 0001561 100.5628 259.5540 15.08836078 96360,6917.892,95.438,540.837,538.677,0.0
53007.0,STARLINK-4215,PAYLOAD,2024-03-31 13:06:33,15.08848088,0.0001479,53.219,33.1006,86.6515,273.4646,9.788e-05,1.27e-05,0.0,0 STARLINK-4215,1 53007U 22076X   24091.54621926  .00001270  00000-0  97880-4 0  9999,2 53007  53.2190  33.1006 0001479  86.6515 273.4646 15.08848088 96414,6917.856,95.437,540.744,538.698,0.0
53007.0,STARLINK-4215,PAYLOAD,2024-04-01 05:00:25,15.08834515,0.0001478,53.2199,30.1246,83.743,276.3731,6.4409e-05,7.37e-06,0.0,0 STARLINK-4215,1 53007U 22076X   24092.20863324  .00000737  00000-0  64409-4 0  9991,2 53007  53.2199  30.1246 0001478  83.7430 276.3731 15.08834515 96517,6917.897,95.438,540.785,538.74,0.0
